[{"OBJECT_NAME":"ONEWEB-0179","OBJECT_ID":"2021-031C","EPOCH":"2025-12-18T04:34:38.542368","MEAN_MOTION":13.1450343,"ECCENTRICITY":0.00015982,"INCLINATION":87.9003,"RA_OF_ASC_NODE":325.7504,"ARG_OF_PERICENTER":88.2855,"MEAN_ANOMALY":271.8458,"EPHEMERIS_TYPE":0,"CLASSIFICATION_TYPE":"U","NORAD_CAT_ID":48212,"ELEMENT_SET_NO":999,"REV_AT_EPOCH":22455,"BSTAR":-0.00045111039,"MEAN_MOTION_DOT":-1.54e-6,"MEAN_MOTION_DDOT":0},{"OBJECT_NAME":"ONEWEB-0180","OBJECT_ID":"2021-031D","EPOCH":"2025-12-18T07:11:03.560064","MEAN_MOTION":13.14503857,"ECCENTRICITY":0.00015001,"INCLINATION":87.9005,"RA_OF_ASC_NODE":325.7264,"ARG_OF_PERICENTER":77.5427,"MEAN_ANOMALY":282.587,"EPHEMERIS_TYPE":0,"CLASSIFICATION_TYPE":"U","NORAD_CAT_ID":48213,"ELEMENT_SET_NO":999,"REV_AT_EPOCH":22445,"BSTAR":0.00048990871,"MEAN_MOTION_DOT":1.94e-6,"MEAN_MOTION_DDOT":0},{"OBJECT_NAME":"ONEWEB-0218","OBJECT_ID":"2021-031E","EPOCH":"2025-12-17T22:34:59.250720","MEAN_MOTION":13.14503501,"ECCENTRICITY":0.00018141,"INCLINATION":87.9005,"RA_OF_ASC_NODE":325.7981,"ARG_OF_PERICENTER":53.4352,"MEAN_ANOMALY":306.6944,"EPHEMERIS_TYPE":0,"CLASSIFICATION_TYPE":"U","NORAD_CAT_ID":48214,"ELEMENT_SET_NO":999,"REV_AT_EPOCH":22456,"BSTAR":0.00012020693,"MEAN_MOTION_DOT":5.7e-7,"MEAN_MOTION_DDOT":0},{"OBJECT_NAME":"ONEWEB-0209","OBJECT_ID":"2021-031F","EPOCH":"2025-12-18T05:37:26.323680","MEAN_MOTION":13.14503861,"ECCENTRICITY":0.00015752,"INCLINATION":87.8994,"RA_OF_ASC_NODE":325.7758,"ARG_OF_PERICENTER":85.8351,"MEAN_ANOMALY":274.2958,"EPHEMERIS_TYPE":0,"CLASSIFICATION_TYPE":"U","NORAD_CAT_ID":48215,"ELEMENT_SET_NO":999,"REV_AT_EPOCH":22460,"BSTAR":0.00060528834,"MEAN_MOTION_DOT":2.37e-6,"MEAN_MOTION_DDOT":0},{"OBJECT_NAME":"ONEWEB-0198","OBJECT_ID":"2021-031G","EPOCH":"2025-12-18T05:14:47.027904","MEAN_MOTION":13.1450445,"ECCENTRICITY":0.00015088,"INCLINATION":87.8991,"RA_OF_ASC_NODE":325.7758,"ARG_OF_PERICENTER":73.424,"MEAN_ANOMALY":286.7055,"EPHEMERIS_TYPE":0,"CLASSIFICATION_TYPE":"U","NORAD_CAT_ID":48216,"ELEMENT_SET_NO":999,"REV_AT_EPOCH":22471,"BSTAR":0.0003557984,"MEAN_MOTION_DOT":1.45e-6,"MEAN_MOTION_DDOT":0},{"OBJECT_NAME":"ONEWEB-0189","OBJECT_ID":"2021-031H","EPOCH":"2025-12-17T22:14:24.770112","MEAN_MOTION":13.14504735,"ECCENTRICITY":0.00015393,"INCLINATION":87.8996,"RA_OF_ASC_NODE":325.8083,"ARG_OF_PERICENTER":73.8442,"MEAN_ANOMALY":286.2857,"EPHEMERIS_TYPE":0,"CLASSIFICATION_TYPE":"U","NORAD_CAT_ID":48217,"ELEMENT_SET_NO":999,"REV_AT_EPOCH":22441,"BSTAR":0.00061547032,"MEAN_MOTION_DOT":2.41e-6,"MEAN_MOTION_DDOT":0},{"OBJECT_NAME":"ONEWEB-0196","OBJECT_ID":"2021-031J","EPOCH":"2025-12-17T23:32:04.493184","MEAN_MOTION":13.14503208,"ECCENTRICITY":0.00016363,"INCLINATION":87.8992,"RA_OF_ASC_NODE":325.8112,"ARG_OF_PERICENTER":81.5139,"MEAN_ANOMALY":278.6176,"EPHEMERIS_TYPE":0,"CLASSIFICATION_TYPE":"U","NORAD_CAT_ID":48218,"ELEMENT_SET_NO":999,"REV_AT_EPOCH":22442,"BSTAR":-0.00020451948,"MEAN_MOTION_DOT":-6.3e-7,"MEAN_MOTION_DDOT":0},{"OBJECT_NAME":"ONEWEB-0183","OBJECT_ID":"2021-031K","EPOCH":"2025-12-18T04:24:21.566880","MEAN_MOTION":13.14504047,"ECCENTRICITY":0.00017558,"INCLINATION":87.8985,"RA_OF_ASC_NODE":325.7746,"ARG_OF_PERICENTER":90.8275,"MEAN_ANOMALY":269.3056,"EPHEMERIS_TYPE":0,"CLASSIFICATION_TYPE":"U","NORAD_CAT_ID":48219,"ELEMENT_SET_NO":999,"REV_AT_EPOCH":22454,"BSTAR":-0.00034170245,"MEAN_MOTION_DOT":-1.14e-6,"MEAN_MOTION_DDOT":0},{"OBJECT_NAME":"ONEWEB-0185","OBJECT_ID":"2021-031L","EPOCH":"2025-12-17T23:33:12.765600","MEAN_MOTION":13.1450366,"ECCENTRICITY":0.00014642,"INCLINATION":87.9005,"RA_OF_ASC_NODE":325.7921,"ARG_OF_PERICENTER":94.3668,"MEAN_ANOMALY":265.7629,"EPHEMERIS_TYPE":0,"CLASSIFICATION_TYPE":"U","NORAD_CAT_ID":48220,"ELEMENT_SET_NO":999,"REV_AT_EPOCH":22444,"BSTAR":-0.00025036449,"MEAN_MOTION_DOT":-8.0e-7,"MEAN_MOTION_DDOT":0},{"OBJECT_NAME":"ONEWEB-0187","OBJECT_ID":"2021-031M","EPOCH":"2025-12-18T04:33:16.700832","MEAN_MOTION":13.14502191,"ECCENTRICITY":0.0001512,"INCLINATION":87.899,"RA_OF_ASC_NODE":325.7912,"ARG_OF_PERICENTER":84.2348,"MEAN_ANOMALY":275.8954,"EPHEMERIS_TYPE":0,"CLASSIFICATION_TYPE":"U","NORAD_CAT_ID":48221,"ELEMENT_SET_NO":999,"REV_AT_EPOCH":22448,"BSTAR":-0.0014852371,"MEAN_MOTION_DOT":-5.38e-6,"MEAN_MOTION_DDOT":0},{"OBJECT_NAME":"ONEWEB-0192","OBJECT_ID":"2021-031N","EPOCH":"2025-12-18T05:39:43.471584","MEAN_MOTION":13.14502505,"ECCENTRICITY":0.00017937,"INCLINATION":87.8988,"RA_OF_ASC_NODE":325.7718,"ARG_OF_PERICENTER":78.1687,"MEAN_ANOMALY":281.9644,"EPHEMERIS_TYPE":0,"CLASSIFICATION_TYPE":"U","NORAD_CAT_ID":48222,"ELEMENT_SET_NO":999,"REV_AT_EPOCH":22440,"BSTAR":0.0011958068,"MEAN_MOTION_DOT":4.56e-6,"MEAN_MOTION_DDOT":0},{"OBJECT_NAME":"ONEWEB-0219","OBJECT_ID":"2021-031P","EPOCH":"2025-12-18T05:10:01.448256","MEAN_MOTION":13.14504647,"ECCENTRICITY":0.00015252,"INCLINATION":87.8994,"RA_OF_ASC_NODE":325.7545,"ARG_OF_PERICENTER":86.8228,"MEAN_ANOMALY":273.3077,"EPHEMERIS_TYPE":0,"CLASSIFICATION_TYPE":"U","NORAD_CAT_ID":48223,"ELEMENT_SET_NO":999,"REV_AT_EPOCH":22460,"BSTAR":0.00015848436,"MEAN_MOTION_DOT":7.2e-7,"MEAN_MOTION_DDOT":0},{"OBJECT_NAME":"ONEWEB-0202","OBJECT_ID":"2021-031Q","EPOCH":"2025-12-18T04:42:36.443232","MEAN_MOTION":13.14502593,"ECCENTRICITY":0.00015467,"INCLINATION":87.899,"RA_OF_ASC_NODE":325.77,"ARG_OF_PERICENTER":59.1854,"MEAN_ANOMALY":300.9428,"EPHEMERIS_TYPE":0,"CLASSIFICATION_TYPE":"U","NORAD_CAT_ID":48224,"ELEMENT_SET_NO":999,"REV_AT_EPOCH":22458,"BSTAR":-0.0015103111,"MEAN_MOTION_DOT":-5.47e-6,"MEAN_MOTION_DDOT":0},{"OBJECT_NAME":"ONEWEB-0204","OBJECT_ID":"2021-031R","EPOCH":"2025-12-17T22:13:16.818240","MEAN_MOTION":13.14505004,"ECCENTRICITY":0.00018385,"INCLINATION":87.8995,"RA_OF_ASC_NODE":325.8143,"ARG_OF_PERICENTER":93.593,"MEAN_ANOMALY":266.541,"EPHEMERIS_TYPE":0,"CLASSIFICATION_TYPE":"U","NORAD_CAT_ID":48225,"ELEMENT_SET_NO":999,"REV_AT_EPOCH":22444,"BSTAR":0.00057181223,"MEAN_MOTION_DOT":2.25e-6,"MEAN_MOTION_DDOT":0},{"OBJECT_NAME":"ONEWEB-0205","OBJECT_ID":"2021-031S","EPOCH":"2025-12-18T04:56:19.381632","MEAN_MOTION":13.14504972,"ECCENTRICITY":0.00015906,"INCLINATION":87.8997,"RA_OF_ASC_NODE":325.7513,"ARG_OF_PERICENTER":84.9317,"MEAN_ANOMALY":275.1994,"EPHEMERIS_TYPE":0,"CLASSIFICATION_TYPE":"U","NORAD_CAT_ID":48226,"ELEMENT_SET_NO":999,"REV_AT_EPOCH":22449,"BSTAR":-0.00020572419,"MEAN_MOTION_DOT":-6.3e-7,"MEAN_MOTION_DDOT":0},{"OBJECT_NAME":"ONEWEB-0206","OBJECT_ID":"2021-031T","EPOCH":"2025-12-18T04:17:31.350048","MEAN_MOTION":13.14503227,"ECCENTRICITY":0.00020492,"INCLINATION":87.9006,"RA_OF_ASC_NODE":325.7478,"ARG_OF_PERICENTER":81.5394,"MEAN_ANOMALY":278.5968,"EPHEMERIS_TYPE":0,"CLASSIFICATION_TYPE":"U","NORAD_CAT_ID":48227,"ELEMENT_SET_NO":999,"REV_AT_EPOCH":22444,"BSTAR":-0.0001649506,"MEAN_MOTION_DOT":-4.8e-7,"MEAN_MOTION_DDOT":0}]
