ONEWEB-0179             
1 48212U 21031C   25352.19072387 -.00000154  00000+0 -45111-3 0  9994
2 48212  87.9003 325.7504 0001598  88.2855 271.8458 13.14503430224558
ONEWEB-0180             
1 48213U 21031D   25352.29934676  .00000194  00000+0  48991-3 0  9995
2 48213  87.9005 325.7264 0001500  77.5427 282.5870 13.14503857224452
ONEWEB-0218             
1 48214U 21031E   25351.94096355  .00000057  00000+0  12021-3 0  9993
2 48214  87.9005 325.7981 0001814  53.4352 306.6944 13.14503501224565
ONEWEB-0209             
1 48215U 21031F   25352.23433245  .00000237  00000+0  60529-3 0  9996
2 48215  87.8994 325.7758 0001575  85.8351 274.2958 13.14503861224605
ONEWEB-0198             
1 48216U 21031G   25352.21859986  .00000145  00000+0  35580-3 0  9996
2 48216  87.8991 325.7758 0001508  73.4240 286.7055 13.14504450224712
ONEWEB-0189             
1 48217U 21031H   25351.92667558  .00000241  00000+0  61547-3 0  9995
2 48217  87.8996 325.8083 0001539  73.8442 286.2857 13.14504735224410
ONEWEB-0196             
1 48218U 21031J   25351.98060756 -.00000063  00000+0 -20452-3 0  9993
2 48218  87.8992 325.8112 0001636  81.5139 278.6176 13.14503208224421
ONEWEB-0183             
1 48219U 21031K   25352.18358295 -.00000114  00000+0 -34170-3 0  9994
2 48219  87.8985 325.7746 0001755  90.8275 269.3056 13.14504047224541
ONEWEB-0185             
1 48220U 21031L   25351.98139775 -.00000080  00000+0 -25036-3 0  9996
2 48220  87.9005 325.7921 0001464  94.3668 265.7629 13.14503660224449
ONEWEB-0187             
1 48221U 21031M   25352.18977663 -.00000538  00000+0 -14852-2 0  9997
2 48221  87.8990 325.7912 0001512  84.2348 275.8954 13.14502191224484
ONEWEB-0192             
1 48222U 21031N   25352.23591981  .00000456  00000+0  11958-2 0  9990
2 48222  87.8988 325.7718 0001793  78.1687 281.9644 13.14502505224400
ONEWEB-0219             
1 48223U 21031P   25352.21529454  .00000072  00000+0  15848-3 0  9992
2 48223  87.8994 325.7545 0001525  86.8228 273.3077 13.14504647224602
ONEWEB-0202             
1 48224U 21031Q   25352.19625513 -.00000547  00000+0 -15103-2 0  9995
2 48224  87.8990 325.7700 0001546  59.1854 300.9428 13.14502593224585
ONEWEB-0204             
1 48225U 21031R   25351.92588910  .00000225  00000+0  57181-3 0  9999
2 48225  87.8995 325.8143 0001838  93.5930 266.5410 13.14505004224447
ONEWEB-0205             
1 48226U 21031S   25352.20577988 -.00000063  00000+0 -20572-3 0  9991
2 48226  87.8997 325.7513 0001590  84.9317 275.1994 13.14504972224499
ONEWEB-0206             
1 48227U 21031T   25352.17883507 -.00000048  00000+0 -16495-3 0  9997
2 48227  87.9006 325.7478 0002049  81.5394 278.5968 13.14503227224445
